ONEWEB-0417             
1 50492U 21132Z   23059.48670779  .00000012  00000+0 -25397-5 0  9990
2 50492  87.9222 214.8290 0001990 101.5118 258.6238 13.18687635 62835
ONEWEB-0417             
1 50492U 21132Z   23059.94196653 -.00000028  00000+0 -10257-3 0  9990
2 50492  87.9221 214.7387 0002004 101.5123 258.6234 13.18687632 64186
ONEWEB-0417             
1 50492U 21132Z   23060.85248407 -.00000030  00000+0 -10949-3 0  9998
2 50492  87.9221 214.5583 0002024 101.4382 258.6977 13.18687125 63012
ONEWEB-0417             
1 50492U 21132Z   23061.76300030  .00000080  00000+0  16935-3 0  9994
2 50492  87.9226 214.3780 0002031 100.7905 259.3456 13.18688024 63137
ONEWEB-0417             
1 50492U 21132Z   23062.37001146  .00000100  00000+0  22079-3 0  9997
2 50492  87.9230 214.2578 0002029 100.6481 259.4879 13.18688292 64500
ONEWEB-0417             
1 50492U 21132Z   23062.44588760  .00000100  00000+0  22006-3 0  9997
2 50492  87.9230 214.2428 0002031 100.6458 259.4903 13.18688609 63229
ONEWEB-0417             
1 50492U 21132Z   23062.67351676  .00000146  00000+0  33713-3 0  9993
2 50492  87.9231 214.1978 0002034 100.5962 259.5399 13.18688439 63255
